#dV2023  1 11 22  0  0.00000000    1682       CTS   FIT  GFZ
## 2244 338400.00000000    30.00000000 59955 0.9166666666667
+    1   L64  0  0  0  0  0  0  0  0  0  0  0  0  0  0  0  0
+          0  0  0  0  0  0  0  0  0  0  0  0  0  0  0  0  0
+          0  0  0  0  0  0  0  0  0  0  0  0  0  0  0  0  0
+          0  0  0  0  0  0  0  0  0  0  0  0  0  0  0  0  0
+          0  0  0  0  0  0  0  0  0  0  0  0  0  0  0  0  0
++         0  0  0  0  0  0  0  0  0  0  0  0  0  0  0  0  0
++         0  0  0  0  0  0  0  0  0  0  0  0  0  0  0  0  0
++         0  0  0  0  0  0  0  0  0  0  0  0  0  0  0  0  0
++         0  0  0  0  0  0  0  0  0  0  0  0  0  0  0  0  0
++         0  0  0  0  0  0  0  0  0  0  0  0  0  0  0  0  0
%c L  cc GPS ccc cccc cccc cccc cccc ccccc ccccc ccccc ccccc
%c cc cc ccc ccc cccc cccc cccc cccc ccccc ccccc ccccc ccccc
%f  0.0000000  0.000000000  0.00000000000  0.000000000000000
%f  0.0000000  0.000000000  0.00000000000  0.000000000000000
%i    0    0    0    0      0      0      0      0         0
%i    0    0    0    0      0      0      0      0         0
/* CCCCCCCCCCCCCCCCCCCCCCCCCCCCCCCCCCCCCCCCCCCCCCCCCCCCCCCCCCCCCCCCCCCCCCCCCCCCC
/* C                             GFZ RSO-ORBIT                                 C
/* C DOI: https://doi.org/10.5880/GFZ_ORBIT/RSO/L64_G_v02                      C
/* C                                                                           C
/* C DORIS        RMS: not applicable                                          C
/* C GNSS-E Code  RMS: not applicable                                          C
/* C GNSS-E Phase RMS: not applicable                                          C
/* C GNSS-G Code  RMS:  49.464 [cm]   Obs.acc.:     13595 Obs.eli.:      1206  C
/* C GNSS-G Phase RMS:   3.998 [mm]   Obs.acc.:     13595 Obs.eli.:      1206  C
/* C SLR          RMS:   1.611 [cm]   Obs.acc.:        34 Obs.eli.:         0  C
/* C                                                                           C
/* CCCCCCCCCCCCCCCCCCCCCCCCCCCCCCCCCCCCCCCCCCCCCCCCCCCCCCCCCCCCCCCCCCCCCCCCCCCCC
*  2023  1 12  7 46 30.00000000
PL64   4833.710526  -3826.388161   3037.759097    897.310990
VL64  24543.703762 -23256.985307 -68284.075020 999999.999999
*  2023  1 12  7 47  0.00000000
PL64   4904.519135  -3894.198131   2831.261573    897.770130
VL64  22658.622918 -21944.108184 -69368.252208 999999.999999
*  2023  1 12  7 47 30.00000000
PL64   4969.642900  -3958.020177   2621.626321    898.229335
VL64  20754.179835 -20598.599443 -70375.695653 999999.999999
*  2023  1 12  7 48  0.00000000
PL64   5029.027094  -4017.758500   2409.085280    898.688696
VL64  18832.617437 -19221.864292 -71305.260903 999999.999999
*  2023  1 12  7 48 30.00000000
PL64   5082.623743  -4073.321587   2193.873694    899.148067
VL64  16896.193499 -17815.354688 -72155.890348 999999.999999
*  2023  1 12  7 49  0.00000000
PL64   5130.391663  -4124.622349   1976.229846    899.607343
VL64  14947.177979 -16380.567553 -72926.615183 999999.999999
*  2023  1 12  7 49 30.00000000
PL64   5172.296498  -4171.578253   1756.394789    900.066571
VL64  12987.850247 -14919.042820 -73616.556863 999999.999999
*  2023  1 12  7 50  0.00000000
PL64   5208.310739  -4214.111448   1534.612078    900.525889
VL64  11020.496236 -13432.361128 -74224.928506 999999.999999
*  2023  1 12  7 50 30.00000000
PL64   5238.413739  -4252.148880   1311.127486    900.985264
VL64   9047.405270 -11922.141315 -74751.035347 999999.999999
*  2023  1 12  7 51  0.00000000
PL64   5262.591724  -4285.622412   1086.188736    901.444476
VL64   7070.867683 -10390.039410 -75194.274408 999999.999999
*  2023  1 12  7 51 30.00000000
PL64   5280.837788  -4314.468927    860.045220    901.903729
VL64   5093.172789  -8837.748472 -75554.136351 999999.999999
*  2023  1 12  7 52  0.00000000
PL64   5293.151888  -4338.630440    632.947712    902.363207
VL64   3116.604837  -7266.996175 -75830.208058 999999.999999
*  2023  1 12  7 52 30.00000000
PL64   5299.540820  -4358.054200    405.148082    902.822498
VL64   1143.439325  -5679.541345 -76022.172501 999999.999999
*  2023  1 12  7 53  0.00000000
PL64   5300.018191  -4372.692773    176.899008    903.281924
VL64   -824.058776  -4077.171798 -76129.808760 999999.999999
*  2023  1 12  7 53 30.00000000
PL64   5294.604387  -4382.504130    -51.546316    903.741226
VL64  -2783.637905  -2461.701724 -76152.993447 999999.999999
*  2023  1 12  7 54  0.00000000
PL64   5283.326518  -4387.451719   -279.934471    904.200362
VL64  -4733.063724   -834.968322 -76091.699972 999999.999999
*  2023  1 12  7 54 30.00000000
PL64   5266.218373  -4387.504535   -508.012103    904.659816
VL64  -6670.120992    801.169381 -75945.996737 999999.999999
*  2023  1 12  7 55  0.00000000
PL64   5243.320356  -4382.637179   -735.526203    905.119089
VL64  -8592.615429   2444.830623 -75716.048225 999999.999999
*  2023  1 12  7 55 30.00000000
PL64   5214.679414  -4372.829927   -962.224405    905.578389
VL64 -10498.377403   4094.115575 -75402.116489 999999.999999
*  2023  1 12  7 56  0.00000000
PL64   5180.348966  -4358.068776  -1187.855275    906.037630
VL64 -12385.265138   5747.109550 -75004.561005 999999.999999
*  2023  1 12  7 56 30.00000000
PL64   5140.388810  -4338.345486  -1412.168600    906.496911
VL64 -14251.167793   7401.886921 -74523.837488 999999.999999
*  2023  1 12  7 57  0.00000000
PL64   5094.865023  -4313.657605  -1634.915679    906.956241
VL64 -16094.008002   9056.513295 -73960.495610 999999.999999
*  2023  1 12  7 57 30.00000000
PL64   5043.849867  -4284.008499  -1855.849595    907.415532
VL64 -17911.743517  10709.046484 -73315.177889 999999.999999
*  2023  1 12  7 58  0.00000000
PL64   4987.421673  -4249.407368  -2074.725502    907.874872
VL64 -19702.369429  12357.538284 -72588.619688 999999.999999
*  2023  1 12  7 58 30.00000000
PL64   4925.664727  -4209.869262  -2291.300897    908.334319
VL64 -21463.921047  14000.036892 -71781.648669 999999.999999
*  2023  1 12  7 59  0.00000000
PL64   4858.669145  -4165.415092  -2505.335897    908.793850
VL64 -23194.476054  15634.589808 -70895.183672 999999.999999
*  2023  1 12  7 59 30.00000000
PL64   4786.530747  -4116.071619  -2716.593512    909.253351
VL64 -24892.155945  17259.247163 -69930.234176 999999.999999
*  2023  1 12  8  0  0.00000000
PL64   4709.350917  -4061.871449  -2924.839914    909.712906
VL64 -26555.129609  18872.065043 -68887.899447 999999.999999
*  2023  1 12  8  0 30.00000000
PL64   4627.236457  -4002.853004  -3129.844706    910.172649
VL64 -28181.617220  20471.107838 -67769.364889 999999.999999
*  2023  1 12  8  1  0.00000000
PL64   4540.299430  -3939.060503  -3331.381169    910.632472
VL64 -29769.890836  22054.449297 -66575.898652 999999.999999
*  2023  1 12  8  1 30.00000000
PL64   4448.657004  -3870.543926  -3529.226514    911.092310
VL64 -31318.274481  23620.173893 -65308.851271 999999.999999
*  2023  1 12  8  2  0.00000000
PL64   4352.431297  -3797.358979  -3723.162126    911.551942
VL64 -32825.146182  25166.379621 -63969.655685 999999.999999
*  2023  1 12  8  2 30.00000000
PL64   4251.749206  -3719.567053  -3912.973811    912.011421
VL64 -34288.940533  26691.181455 -62559.825531 999999.999999
*  2023  1 12  8  3  0.00000000
PL64   4146.742240  -3637.235161  -4098.452033    912.470813
VL64 -35708.150536  28192.714052 -61080.952238 999999.999999
*  2023  1 12  8  3 30.00000000
PL64   4037.546337  -3550.435882  -4279.392146    912.930414
VL64 -37081.328923  29669.133662 -59534.702546 999999.999999
*  2023  1 12  8  4  0.00000000
PL64   3924.301686  -3459.247293  -4455.594610    913.390597
VL64 -38407.089696  31118.620237 -57922.816496 999999.999999
*  2023  1 12  8  4 30.00000000
PL64   3807.152541  -3363.752889  -4626.865217    913.851564
VL64 -39684.109705  32539.379822 -56247.104942 999999.999999
*  2023  1 12  8  5  0.00000000
PL64   3686.247030  -3264.041507  -4793.015291    914.313961
VL64 -40911.129569  33929.646824 -54509.446864 999999.999999
*  2023  1 12  8  5 30.00000000
PL64   3561.736961  -3160.207237  -4953.861894    914.776588
VL64 -42086.954548  35287.686084 -52711.787029 999999.999999
*  2023  1 12  8  6  0.00000000
PL64   3433.777629  -3052.349323  -5109.228017    915.238804
VL64 -43210.455691  36611.794553 -50856.133042 999999.999999
*  2023  1 12  8  6 30.00000000
PL64   3302.527616  -2940.572071  -5258.942764    915.701029
VL64 -44280.569769  37900.302145 -48944.552663 999999.999999
*  2023  1 12  8  7  0.00000000
PL64   3168.148597  -2824.984747  -5402.841532    916.162319
VL64 -45296.299555  39151.573612 -46979.173352 999999.999999
*  2023  1 12  8  7 30.00000000
PL64   3030.805134  -2705.701464  -5540.766187    916.622706
VL64 -46256.716065  40364.011838 -44962.179241 999999.999999
*  2023  1 12  8  8  0.00000000
PL64   2890.664477  -2582.841069  -5672.565228    917.082640
VL64 -47160.957707  41536.058231 -42895.807387 999999.999999
*  2023  1 12  8  8 30.00000000
PL64   2747.896360  -2456.527027  -5798.093943    917.542362
VL64 -48008.230079  42666.194184 -40782.348700 999999.999999
*  2023  1 12  8  9  0.00000000
PL64   2602.672793  -2326.887291  -5917.214574    918.002090
VL64 -48797.809108  43752.945383 -38624.145671 999999.999999
*  2023  1 12  8  9 30.00000000
PL64   2455.167854  -2194.054169  -6029.796460    918.461894
VL64 -49529.041584  44794.883463 -36423.587218 999999.999999
*  2023  1 12  8 10  0.00000000
PL64   2305.557475  -2058.164186  -6135.716174    918.922118
VL64 -50201.344770  45790.627341 -34183.106713 999999.999999
*  2023  1 12  8 10 30.00000000
PL64   2154.019228  -1919.357932  -6234.857652    919.382060
VL64 -50814.207520  46738.845938 -31905.179198 999999.999999
*  2023  1 12  8 11  0.00000000
PL64   2000.732112  -1777.779917  -6327.112313    919.841891
VL64 -51367.190680  47638.259546 -29592.316749 999999.999999
*  2023  1 12  8 11 30.00000000
PL64   1845.876334  -1633.578410  -6412.379163    920.301710
VL64 -51859.926351  48487.640220 -27247.065189 999999.999999
EOF
